STARLINK-1482           
1 45773U 20038AV  26161.19484693  .00046701  00000+0  12319-2 0  9994
2 45773  53.1547 118.8038 0004789  39.7734 320.3621 15.38038971331046
STARLINK-1496           
1 45780U 20038BC  26161.10156204  .00060341  00000+0  51531-3 0  9993
2 45780  53.0451  89.9832 0000639 147.4100 212.6955 15.68941045331402
STARLINK-1513           
1 45786U 20038BJ  26161.05580376  .00000933  00000+0  41825-4 0  9991
2 45786  53.1605 121.5190 0001330  90.9899 269.1254 15.31698743330992
STARLINK-1522           
1 46027U 20055A   26161.00757102  .00024776  00000+0  13897-2 0  9994
2 46027  53.0623  69.0545 0002930  60.6356 299.4928 15.13243543322842
STARLINK-1523           
1 46028U 20055B   26161.00645629  .00012116  00000+0  41588-3 0  9999
2 46028  53.1610  57.8887 0001018 113.3371 246.7737 15.30563339323035
STARLINK-1526           
1 46029U 20055C   26161.00167105  .00006052  00000+0  21628-3 0  9993
2 46029  53.1576  57.9356 0001098  95.9193 264.1933 15.30200043323025
STARLINK-1555           
1 46032U 20055F   26160.98586883  .00002405  00000+0  93345-4 0  9995
2 46032  53.1607  57.9896 0001428  86.8968 273.2197 15.30190568323022
STARLINK-1556           
1 46033U 20055G   26161.03431926 -.00003298  00000+0 -99311-4 0  9992
2 46033  53.1597  57.7852 0001491  83.6026 276.5144 15.30188538323001
STARLINK-1557           
1 46034U 20055H   26161.03746448 -.00006603  00000+0 -21102-3 0  9996
2 46034  53.1607  57.7652 0001097 108.8927 251.2193 15.30198825323008
STARLINK-1558           
1 46035U 20055J   26160.97954736  .00001925  00000+0  77142-4 0  9996
2 46035  53.1612  58.0319 0001237  99.3197 260.7944 15.30189011323026
STARLINK-1560           
1 46036U 20055K   26161.22711014 -.00000430  00000+0 -23852-5 0  9998
2 46036  53.1598  56.8904 0001241  98.0524 262.0618 15.30182687323060
STARLINK-1569           
1 46039U 20055N   26160.98270074  .00002638  00000+0  10119-3 0  9999
2 46039  53.1608  58.0104 0001519  77.5521 282.5650 15.30188306323010
STARLINK-1582           
1 46043U 20055S   26160.99783057  .00006307  00000+0  21480-3 0  9995
2 46043  53.1593  57.3214 0001246  85.2838 274.8306 15.31704948323026
STARLINK-1591           
1 46045U 20055U   26161.01534336 -.00007717  00000+0 -24877-3 0  9996
2 46045  53.1591  57.8615 0001362 119.1732 240.9405 15.30188266323005
STARLINK-1524           
1 46047U 20055W   26160.96715890  .00002562  00000+0  94290-4 0  9995
2 46047  53.1604  44.7647 0001114  98.5649 261.5479 15.31698375323204
STARLINK-1527           
1 46048U 20055X   26160.96249333  .00003520  00000+0  12514-3 0  9993
2 46048  53.1583  44.7637 0000787  78.2389 281.8701 15.31702141323177
STARLINK-1540           
1 46051U 20055AA  26160.94853695  .00002471  00000+0  91340-4 0  9996
2 46051  53.1618  45.0419 0001505  91.4176 268.6998 15.31707039323219
STARLINK-1541           
1 46052U 20055AB  26161.33335648  .00119851  00000+0  49336-3 0  9992
2 46052  53.1576  26.1260 0004288 246.0816  70.9077 15.85111972  6019
STARLINK-1543           
1 46053U 20055AC  26160.98580118  .00002407  00000+0  89324-4 0  9997
2 46053  53.1603  44.6721 0001408  90.2225 269.8937 15.31697429323217
STARLINK-1548           
1 46054U 20055AD  26160.99979183  .00002685  00000+0  98285-4 0  9997
2 46054  53.1620  44.6821 0001360  93.1492 266.9665 15.31692704323210
STARLINK-1554           
1 46055U 20055AE  26160.91590231  .00000084  00000+0  14483-4 0  9992
2 46055  53.1589  45.0157 0001007  94.4867 265.6250 15.31684703323205
STARLINK-1564           
1 46058U 20055AH  26160.97274803  .00001225  00000+0  53487-4 0  9990
2 46058  53.1622  45.7244 0001102  93.3064 266.8063 15.30190027323196
STARLINK-1570           
1 46059U 20055AJ  26160.94383571  .00000070  00000+0  14007-4 0  9993
2 46059  53.1609  44.7690 0000969  69.3299 290.7807 15.31706500323168
STARLINK-1572           
1 46060U 20055AK  26160.95374406  .00002183  00000+0  85846-4 0  9999
2 46060  53.1614  45.5572 0001416  84.9582 275.1581 15.30188174323166
STARLINK-1573           
1 46061U 20055AL  26160.99509696  .00001216  00000+0  50952-4 0  9991
2 46061  53.1601  44.4978 0000902 132.4254 227.6824 15.31694006323210
STARLINK-1577           
1 46063U 20055AN  26160.95781724  .00004879  00000+0  16884-3 0  9996
2 46063  53.1599  44.6689 0001216  89.5263 270.5878 15.31706947323203
STARLINK-1583           
1 46064U 20055AP  26160.97187760  .00004760  00000+0  16504-3 0  9997
2 46064  53.1605  45.1031 0001158 104.2964 255.8166 15.31702973323196
STARLINK-1536           
1 46070U 20055AV  26161.03840889  .00002840  00000+0  10326-3 0  9993
2 46070  53.1614  32.1796 0001425  90.1495 269.9669 15.31700871323386
STARLINK-1542           
1 46073U 20055AY  26160.93227868  .00003813  00000+0  13457-3 0  9999
2 46073  53.1598  35.6408 0001039  86.3677 273.7443 15.31701817323315
STARLINK-1549           
1 46074U 20055AZ  26160.37217166  .00018145  00000+0  63736-3 0  9997
2 46074  53.0519  35.4172 0002975 127.0612 233.0659 15.29466582323251
