OBJECT_NAME,OBJECT_ID,EPOCH,MEAN_MOTION,ECCENTRICITY,INCLINATION,RA_OF_ASC_NODE,ARG_OF_PERICENTER,MEAN_ANOMALY,EPHEMERIS_TYPE,CLASSIFICATION_TYPE,NORAD_CAT_ID,ELEMENT_SET_NO,REV_AT_EPOCH,BSTAR,MEAN_MOTION_DOT,MEAN_MOTION_DDOT
STARLINK-1482,2020-038AV,2026-06-10T04:40:34.774752,15.38038971,.00047898,53.1547,118.8038,39.7734,320.3621,0,U,45773,999,33104,.12319438E-2,.46701E-3,0
STARLINK-1496,2020-038BC,2026-06-10T02:26:14.960256,15.68941045,.00006391,53.0451,89.9832,147.4100,212.6955,0,U,45780,999,33140,.51530783E-3,.60341E-3,0
STARLINK-1513,2020-038BJ,2026-06-10T01:20:21.444864,15.31698743,.00013303,53.1605,121.5190,90.9899,269.1254,0,U,45786,999,33099,.41824959E-4,.933E-5,0
STARLINK-1522,2020-055A,2026-06-10T00:10:54.136128,15.13243543,.00029308,53.0623,69.0545,60.6356,299.4928,0,U,46027,999,32284,.1389726E-2,.24776E-3,0
STARLINK-1523,2020-055B,2026-06-10T00:09:17.823456,15.30563339,.00010188,53.1610,57.8887,113.3371,246.7737,0,U,46028,999,32303,.41587698E-3,.12116E-3,0
STARLINK-1526,2020-055C,2026-06-10T00:02:24.378720,15.30200043,.00010984,53.1576,57.9356,95.9193,264.1933,0,U,46029,999,32302,.21628284E-3,.6052E-4,0
STARLINK-1555,2020-055F,2026-06-09T23:39:39.066912,15.30190568,.00014288,53.1607,57.9896,86.8968,273.2197,0,U,46032,999,32302,.93345094E-4,.2405E-4,0
STARLINK-1556,2020-055G,2026-06-10T00:49:25.184064,15.30188538,.00014912,53.1597,57.7852,83.6026,276.5144,0,U,46033,999,32300,-.99311089E-4,-.3298E-4,0
STARLINK-1557,2020-055H,2026-06-10T00:53:56.931072,15.30198825,.00010973,53.1607,57.7652,108.8927,251.2193,0,U,46034,999,32300,-.21101529E-3,-.6603E-4,0
STARLINK-1558,2020-055J,2026-06-09T23:30:32.891904,15.30189011,.00012378,53.1612,58.0319,99.3197,260.7944,0,U,46035,999,32302,.77142131E-4,.1925E-4,0
STARLINK-1560,2020-055K,2026-06-10T05:27:02.316096,15.30182687,.00012412,53.1598,56.8904,98.0524,262.0618,0,U,46036,999,32306,-.2385178E-5,-.43E-5,0
STARLINK-1569,2020-055N,2026-06-09T23:35:05.343936,15.30188306,.00015196,53.1608,58.0104,77.5521,282.5650,0,U,46039,999,32301,.10118821E-3,.2638E-4,0
STARLINK-1582,2020-055S,2026-06-09T23:56:52.561248,15.31704948,.00012461,53.1593,57.3214,85.2838,274.8306,0,U,46043,999,32302,.21479905E-3,.6307E-4,0
STARLINK-1591,2020-055U,2026-06-10T00:22:05.666304,15.30188266,.00013627,53.1591,57.8615,119.1732,240.9405,0,U,46045,999,32300,-.24876919E-3,-.7717E-4,0
STARLINK-1524,2020-055W,2026-06-09T23:12:42.528960,15.31698375,.00011146,53.1604,44.7647,98.5649,261.5479,0,U,46047,999,32320,.94290234E-4,.2562E-4,0
STARLINK-1527,2020-055X,2026-06-09T23:05:59.423712,15.31702141,.00007877,53.1583,44.7637,78.2389,281.8701,0,U,46048,999,32317,.12513551E-3,.352E-4,0
STARLINK-1540,2020-055AA,2026-06-09T22:45:53.592480,15.31707039,.00015051,53.1618,45.0419,91.4176,268.6998,0,U,46051,999,32321,.91339703E-4,.2471E-4,0
STARLINK-1541,2020-055AB,2026-06-10T08:00:01.999872,15.85111972,.00042886,53.1576,26.1260,246.0816,70.9077,0,U,46052,999,601,.49335857E-3,.119851E-2,0
STARLINK-1543,2020-055AC,2026-06-09T23:39:33.221952,15.31697429,.00014082,53.1603,44.6721,90.2225,269.8937,0,U,46053,999,32321,.89323579E-4,.2407E-4,0
STARLINK-1548,2020-055AD,2026-06-09T23:59:42.014112,15.31692704,.00013602,53.1620,44.6821,93.1492,266.9665,0,U,46054,999,32321,.98285438E-4,.2685E-4,0
STARLINK-1554,2020-055AE,2026-06-09T21:58:53.959584,15.31684703,.00010077,53.1589,45.0157,94.4867,265.6250,0,U,46055,999,32320,.14483125E-4,.84E-6,0
STARLINK-1564,2020-055AH,2026-06-09T23:20:45.429792,15.30190027,.00011027,53.1622,45.7244,93.3064,266.8063,0,U,46058,999,32319,.53486978E-4,.1225E-4,0
STARLINK-1570,2020-055AJ,2026-06-09T22:39:07.405344,15.31706500,.00009697,53.1609,44.7690,69.3299,290.7807,0,U,46059,999,32316,.14006506E-4,.7E-6,0
STARLINK-1572,2020-055AK,2026-06-09T22:53:23.486784,15.30188174,.00014167,53.1614,45.5572,84.9582,275.1581,0,U,46060,999,32316,.8584643E-4,.2183E-4,0
STARLINK-1573,2020-055AL,2026-06-09T23:52:56.377344,15.31694006,.00009025,53.1601,44.4978,132.4254,227.6824,0,U,46061,999,32321,.50952047E-4,.1216E-4,0
STARLINK-1577,2020-055AN,2026-06-09T22:59:15.409536,15.31706947,.00012166,53.1599,44.6689,89.5263,270.5878,0,U,46063,999,32320,.16883622E-3,.4879E-4,0
STARLINK-1583,2020-055AP,2026-06-09T23:19:30.224640,15.31702973,.00011585,53.1605,45.1031,104.2964,255.8166,0,U,46064,999,32319,.16503915E-3,.476E-4,0
STARLINK-1536,2020-055AV,2026-06-10T00:55:18.528096,15.31700871,.00014251,53.1614,32.1796,90.1495,269.9669,0,U,46070,999,32338,.10325977E-3,.284E-4,0
STARLINK-1542,2020-055AY,2026-06-09T22:22:28.877952,15.31701817,.00010396,53.1598,35.6408,86.3677,273.7443,0,U,46073,999,32331,.1345669E-3,.3813E-4,0
STARLINK-1549,2020-055AZ,2026-06-09T08:55:55.631424,15.29466582,.00029754,53.0519,35.4172,127.0612,233.0659,0,U,46074,999,32325,.63735729E-3,.18145E-3,0
